C/2021 P4 (ATLAS),e,56.3471,348.0387,175.7958,294.6328,0.0001949,0.99633794,0.0000,07/30.3608/2022,2000,g  9.5,4.0
# From MPEC 2023-E68
P/2021 PE20 (ATLAS),e,19.9995,99.6237,210.4558,3.745964,0.1359436,0.66987584,172.7830,11/28.0/2024,2000,g 17.0,4.0
# From MPEC 2023-FK0
C/2021 Q3 (ATLAS),e,77.7256,307.9124,114.1311,75.41677,0.0015049,0.93095733,1.5602,11/28.0/2024,2000,g  8.0,4.0
# From MPEC 2024-VJ2
C/2021 Q4 (Fuls),h,06/11.5474/2023,71.5051,183.3263,147.0796,1.002528,7.565800,2000,6.0,4.0
# From MPEC 2022-C56
P/2021 Q5 (ATLAS),e,10.7400,239.7572,180.9464,3.286894,0.1653962,0.62466523,195.9670,11/28.0/2024,2000,g 15.0,4.0
# From MPEC 2024-UA9
C/2021 Q6 (PANSTARRS),h,03/25.2147/2024,161.8301,133.5687,141.0604,1.002444,8.707817,2000,6.0,4.0
# From MPEC 2023-FK0
C/2021 QM45 (PANSTARRS),e,22.8082,354.5978,72.8870,401.8920,0.0001223,0.99309222,0.0000,08/13.7018/2022,2000,g 11.0,4.0
# From MPEC 2022-X67
P/2021 R1 (PANSTARRS),e,5.5263,143.1728,220.1455,8.274346,0.0414098,0.40965575,44.8247,11/28.0/2024,2000,g 11.0,4.0
# From MPEC 2022-X67
C/2021 R2 (PANSTARRS),e,134.4837,16.3202,32.5347,6572,0.0000018,0.99888675,0.0000,12/28.2126/2021,2000,g  7.5,4.0
# From MPEC 2021-W31
P/2021 R3 (PANSTARRS),e,19.9366,304.1926,2.6386,3.770211,0.1346343,0.33117664,172.7405,11/28.0/2024,2000,g 16.0,4.0
# From MPEC 2021-W31
P/2021 R4 (Wierzchos),e,21.0178,321.2891,56.7521,5.626772,0.0738440,0.58557598,84.2697,11/28.0/2024,2000,g 16.0,4.0
# From MPEC 2024-JU4
P/2021 R5 (Rankin),e,7.8544,219.9558,167.5852,4.797011,0.0938097,0.30624589,98.5289,11/28.0/2024,2000,g 12.0,4.0
# From MPEC 2021-W31
P/2021 R6 (Groeller),e,34.9043,176.1618,220.8527,6.287521,0.0625151,0.59326257,70.1946,11/28.0/2024,2000,g 14.5,4.0
# From MPEC 2022-X67
C/2021 R7 (PANSTARRS),e,158.8695,170.1838,140.3587,925.7866,0.0000350,0.99389310,0.0000,04/16.9378/2021,2000,g 10.5,4.0
# From MPEC 2021-Y10
P/2021 R8 (Sheppard),e,2.2030,167.0721,190.8367,3.019642,0.1878326,0.29277591,215.6184,11/28.0/2024,2000,g 18.5,4.0
# From MPEC 2023-J29
C/2021 S1 (ATLAS),h,03/01.7906/2022,52.0440,299.8627,148.2706,1.002792,6.122569,2000,7.0,4.0
# From MPEC 2024-VJ2
C/2021 S3 (PANSTARRS),h,02/14.6929/2024,58.5334,215.6184,6.8449,1.000134,1.320078,2000,5.5,4.0
# From MPEC 2024-VJ2
C/2021 S4 (Tsuchinshan),e,17.4783,5.4669,72.9913,159.6274,0.0004887,0.95808810,0.1610,11/28.0/2024,2000,g  6.5,4.0
# From MPEC 2022-OB6
C/2021 T1 (Lemmon),e,140.3606,56.8448,51.5789,2360,0.0000086,0.99870311,0.0000,10/14.6061/2021,2000,g 12.5,4.0
# From MPEC 2023-A50
C/2021 T2 (Fuls),h,06/08.1956/2022,117.5310,223.2268,263.5616,1.000543,1.245536,2000,12.0,4.0
# From MPEC 2024-N80
C/2021 T4 (Lemmon),e,160.7783,257.8921,329.8007,10760,0.0000009,0.99986222,0.0000,07/31.5450/2023,2000,g  7.5,4.0
# From MPEC 2022-ED3
P/2021 U1 (Wierzchos),e,30.5520,246.7875,145.2092,8.537477,0.0395102,0.71287159,45.5936,11/28.0/2024,2000,g 14.5,4.0
# From MPEC 2022-L66
P/2021 U3 (Attard-Maury),e,69.9646,75.0917,335.3044,4.196097,0.1146663,0.54962331,129.5836,11/28.0/2024,2000,g 15.5,4.0
# From MPEC 2021-W31
C/2021 U4 (Leonard),e,152.8894,241.8085,237.3384,45.39397,0.0032226,0.96059793,3.4537,11/28.0/2024,2000,g 17.0,4.0
# From MPEC 2022-WQ9
C/2021 U5 (Catalina),e,39.0422,182.7095,321.4331,219.5064,0.0003031,0.98925106,0.0000,01/26.8162/2022,2000,g 13.0,4.0
# From MPEC 2022-CN4
C/2021 V1 (Rankin),e,71.4469,207.6814,195.1980,703.3850,0.0000528,0.99570976,0.0000,04/30.6287/2022,2000,g 13.0,4.0
# From MPEC 2024-JU4
P/2021 V2 (Fuls),e,12.6946,232.2759,259.8735,9.082869,0.0360056,0.61502113,24.3488,11/28.0/2024,2000,g 10.0,4.0
# From MPEC 2024-TD8
C/2021 X1 (Maury-Attard),h,05/27.1966/2023,140.1026,10.6002,334.5896,1.000376,3.234128,2000,7.0,4.0
# From MPEC 2024-E08
C/2021 X2 (Bok),h,07/08.2247/2022,137.1593,228.8290,193.3544,1.001246,2.997230,2000,13.0,4.0
# From MPEC 2024-GJ3
C/2021 Y1 (ATLAS),h,04/30.8300/2023,77.1952,244.7669,245.8420,1.001397,2.032547,2000,7.0,4.0
# From MPEC 2022-YN2
C/2022 A1 (Sarneczky),e,116.5594,285.4980,201.2619,360.1716,0.0001442,0.99651488,0.0000,01/31.0511/2022,2000,g 18.0,4.0
# From MPEC 2024-P23
C/2022 A2 (PANSTARRS),h,02/18.1793/2023,108.1476,171.5906,88.3667,1.000080,1.735559,2000,9.5,4.0
# From MPEC 2024-UQ8
C/2022 A3 (Lemmon-ATLAS),e,88.3436,325.4657,234.8577,859.6374,0.0000391,0.99569128,0.0000,09/28.8869/2023,2000,g  8.0,4.0
# From MPEC 2022-K19
P/2022 B1 (Wierzchos),e,10.9922,325.4045,148.9005,5.468043,0.0770826,0.65354899,77.5621,11/28.0/2024,2000,g 16.5,4.0
# From MPEC 2022-YB4
A/2022 B3,e,132.0520,286.1818,150.6963,648.0752,0.0000597,0.99428808,0.0000,01/16.9048/2022,2000,g 16.5,2.0
# From MPEC 2022-GA9
C/2022 B4 (Bok),e,20.0516,340.5591,152.9793,393.6231,0.0001262,0.99650366,0.0000,01/30.2407/2022,2000,g 21.0,4.0
# From MPEC 2023-J29
P/2022 BV9 (Lemmon),e,11.9263,337.3107,16.3298,4.364594,0.1080907,0.23387758,161.7898,11/28.0/2024,2000,g  9.5,4.0
# From MPEC 2023-J29
P/2022 C1 (PANSTARRS),e,4.7627,113.1062,9.4073,7.230708,0.0506912,0.44898438,56.7204,11/28.0/2024,2000,g 12.0,4.0
# From MPEC 2023-VM5
P/2022 C2 (PANSTARRS),e,9.9842,135.2619,89.1723,6.034373,0.0664899,0.44184037,56.1920,11/28.0/2024,2000,g 12.5,4.0
# From MPEC 2023-UR6
P/2022 C3 (PANSTARRS),e,12.8231,139.0401,93.8355,9.617885,0.0330434,0.54543935,29.1347,11/28.0/2024,2000,g 11.5,4.0
# From MPEC 2022-K19
P/2022 D1 (PANSTARRS),e,44.0746,47.9561,88.6511,7.404295,0.0489191,0.54780154,58.0932,11/28.0/2024,2000,g 12.5,4.0
# From MPEC 2022-K19
C/2022 D2 (Kowalski),e,22.6724,312.3840,177.8237,384.8763,0.0001305,0.99596577,0.0000,03/27.8693/2022,2000,g 17.0,4.0
# From MPEC 2022-L66
P/2022 E1 (Christensen),e,19.0070,113.3442,114.9533,3.778455,0.1341939,0.22056571,121.0835,11/28.0/2024,2000,g 13.5,4.0
# From MPEC 2024-VJ2
C/2022 E2 (ATLAS),h,09/14.1428/2024,137.1378,125.3862,41.7351,1.000931,3.666282,2000,5.0,4.0
# From MPEC 2024-GJ3
C/2022 E3 (ZTF),e,109.1710,302.5282,145.8107,803030,0.0000000,0.99999861,0.0000,01/12.6316/2023,2000,g  7.5,4.0
# From MPEC 2024-PC5
C/2022 F1 (ATLAS),e,57.9965,350.6370,278.3016,4211,0.0000036,0.99858090,0.0000,08/05.2522/2022,2000,g  7.0,4.0
# From MPEC 2022-QD9
C/2022 F2 (NEOWISE),e,97.3105,58.7848,200.6116,23.85666,0.0084584,0.93337693,8.3000,11/28.0/2024,2000,g 14.5,4.0
# From MPEC 2024-JU4
C/2022 H1 (PANSTARRS),e,49.8597,6.3407,246.2967,861.9496,0.0000389,0.99107881,0.0000,01/18.8591/2024,2000,g  6.0,4.0
# From MPEC 2022-VC5
C/2022 J1 (Maury-Attard),e,105.9577,280.7915,305.6419,47.57185,0.0030039,0.96632194,3.0423,11/28.0/2024,2000,g 14.9,4.0
# From MPEC 2023-M14
C/2022 J2 (Bok),e,149.1388,252.6561,133.0939,89.86160,0.0011570,0.97967402,0.0000,10/26.8171/2022,2000,g  9.0,4.0
# From MPEC 2024-UA9
C/2022 JK5 (PANSTARRS),e,16.8284,59.6496,247.3608,44.15079,0.0033597,0.93899765,1.9446,11/28.0/2024,2000,g 11.0,4.0
# From MPEC 2022-ST7
C/2022 K1 (Leonard),h,12/16.8881/2021,41.9700,136.3473,142.5957,1.001305,3.987987,2000,11.0,4.0
# From MPEC 2023-CD7
C/2022 L1 (Catalina),e,123.4408,300.0321,59.8190,462.1540,0.0000992,0.99655766,0.0000,09/28.0334/2022,2000,g 15.8,4.0
# From MPEC 2024-VJ2
C/2022 L2 (ATLAS),h,03/12.2319/2024,129.3135,39.2405,199.9113,1.001103,2.692751,2000,6.5,4.0
# From MPEC 2024-DC6
P/2022 L3 (ATLAS),e,21.5412,29.8141,10.3942,6.505097,0.0594050,0.62762678,45.1486,11/28.0/2024,2000,g 16.5,4.0
# From MPEC 2022-N37
C/2022 L4 (PANSTARRS),e,141.2462,66.0682,125.2953,285.4609,0.0002044,0.98945098,0.0000,12/09.0286/2021,2000,g 14.0,4.0
# From MPEC 2024-GJ3
C/2022 N1 (Attard-Maury),e,164.7293,301.8778,41.0179,36.81825,0.0044117,0.95981503,3.5736,11/28.0/2024,2000,g 16.9,4.0
# From MPEC 2024-VJ2
C/2022 N2 (PANSTARRS),h,07/31.7152/2025,5.5029,319.7408,75.3827,1.003478,3.825545,2000,6.0,4.0
# From MPEC 2024-A43
C/2022 O1 (ATLAS),h,02/15.7460/2022,71.0432,49.9158,268.9429,1.002087,7.434091,2000,6.0,4.0
# From MPEC 2023-HD1
P/2022 O2 (PANSTARRS),e,9.4210,330.4926,48.6548,6.305769,0.0622439,0.72115887,43.0149,11/28.0/2024,2000,g 16.2,4.0
# From MPEC 2023-N01
C/2022 P1 (NEOWISE),e,154.5972,205.0782,249.9140,18.48533,0.0124012,0.91378138,9.0573,11/28.0/2024,2000,g 13.0,4.0
# From MPEC 2023-XP6
P/2022 P2 (ZTF),e,12.4403,291.1843,137.7325,4.490378,0.1035809,0.55815600,90.2141,11/28.0/2024,2000,g 12.5,4.0
# From MPEC 2023-HD1
C/2022 P3 (ZTF),e,59.5182,72.2141,0.1861,258.6730,0.0002369,0.99008634,0.0000,07/27.5129/2022,2000,g  9.0,4.0
# From MPEC 2023-R20
C/2022 Q2 (ATLAS),e,151.4710,352.9578,44.0568,32.85016,0.0052348,0.94998615,3.4880,11/28.0/2024,2000,g 13.0,4.0
# From MPEC 2024-VJ2
C/2022 QE78 (ATLAS),h,09/10.7073/2025,36.5708,119.9136,0.4683,1.004324,5.477407,2000,5.0,4.0
# From MPEC 2024-M41
P/2022 R1 (PANSTARRS),e,7.3725,175.7512,221.8894,7.169771,0.0513388,0.50229098,21.5359,11/28.0/2024,2000,g 11.5,4.0
# From MPEC 2022-Y15
C/2022 R2 (ATLAS),e,52.9063,60.4113,78.3221,428.7985,0.0001110,0.99852868,0.0000,10/25.4047/2022,2000,g 17.0,4.0
# From MPEC 2024-LE0
C/2022 R3 (Leonard),h,03/05.7867/2023,43.0782,8.2514,72.9145,1.001472,5.130683,2000,9.0,4.0
# From MPEC 2022-X67
P/2022 R4 (PANSTARRS),e,21.0146,176.6338,197.4886,3.837959,0.1310852,0.48972710,114.2829,11/28.0/2024,2000,g 16.5,4.0
# From MPEC 2022-WQ9
P/2022 R5 (PANSTARRS),e,15.2928,115.0465,240.5621,3.069293,0.1832933,0.19496249,167.9143,11/28.0/2024,2000,g 16.0,4.0
# From MPEC 2024-VJ2
C/2022 R6 (PANSTARRS),h,08/25.8154/2025,57.0195,150.7845,319.8830,1.004908,6.566018,2000,5.0,4.0
# From MPEC 2023-HD1
P/2022 S1 (PANSTARRS),e,34.5714,136.0925,262.8283,6.408979,0.0607464,0.50786097,50.5273,11/28.0/2024,2000,g 15.1,4.0
# From MPEC 2022-VC5
C/2022 S3 (PANSTARRS),h,01/21.6909/2023,78.5071,157.2822,267.9722,1.000400,0.838346,2000,17.0,4.0
# From MPEC 2024-PC5
C/2022 S4 (Lemmon),e,101.2203,220.1753,268.5591,1301,0.0000210,0.99787670,0.0000,07/18.7631/2024,2000,g  8.0,4.0
# From MPEC 2023-HD1
C/2022 S5 (PANSTARRS),e,136.5246,214.8630,232.8106,20.50902,0.0106117,0.89375747,7.7607,11/28.0/2024,2000,g 16.3,4.0
# From MPEC 2024-O39
C/2022 T1 (Lemmon),h,02/17.4277/2024,22.5440,236.9185,324.2965,1.000166,3.444671,2000,9.0,4.0
# From MPEC 2024-VJ2
